{"type": "FeatureCollection", "features": [ {"type": "Feature", "properties": {"norad_id": 66677, "name": "TRANSPORTER-15M", "group": "last-30-days", "lat": -52.75850354853837, "lon": -120.53666083783195, "alt_km": 495.74702955328576, "timestamp": "2025-12-23T18:59:30.756904+00:00", "meta": {"OBJECT_NAME": "TRANSPORTER-15M", "OBJECT_ID": "2025-276M", "EPOCH": "2025-12-22T18:18:14.318208", "MEAN_MOTION": 15.21134629, "ECCENTRICITY": 0.00105541, "INCLINATION": 97.4384, "RA_OF_ASC_NODE": 68.3422, "ARG_OF_PERICENTER": 242.2487, "MEAN_ANOMALY": 117.7678, "EPHEMERIS_TYPE": 0, "CLASSIFICATION_TYPE": "U", "NORAD_CAT_ID": 66677, "ELEMENT_SET_NO": 999, "REV_AT_EPOCH": 364, "BSTAR": 0.044794033, "MEAN_MOTION_DOT": 0.01076501, "MEAN_MOTION_DDOT": 0}, "tle": {"line1": "1 66677U 25276M   25356.76266572  .01076501  00000+0  44794-1 0  9994", "line2": "2 66677  97.4384  68.3422 0010554 242.2487 117.7678 15.21134629  3642"}}, "geometry": {"type": "Point", "coordinates": [-120.53666083783195, -52.75850354853837]}}, {"type": "Feature", "properties": {"norad_id": 66678, "name": "TRANSPORTER-15N", "group": "last-30-days", "lat": 15.066599556494081, "lon": -108.6391794757988, "alt_km": 516.0818795597743, "timestamp": "2025-12-23T18:59:30.756914+00:00", "meta": {"OBJECT_NAME": "TRANSPORTER-15N", "OBJECT_ID": "2025-276N", "EPOCH": "2025-12-23T04:01:05.841408", "MEAN_MOTION": 15.16820662, "ECCENTRICITY": 0.00044399, "INCLINATION": 97.4429, "RA_OF_ASC_NODE": 68.7316, "ARG_OF_PERICENTER": 250.9249, "MEAN_ANOMALY": 109.1504, "EPHEMERIS_TYPE": 0, "CLASSIFICATION_TYPE": "U", "NORAD_CAT_ID": 66678, "ELEMENT_SET_NO": 999, "REV_AT_EPOCH": 370, "BSTAR": -0.00024438781, "MEAN_MOTION_DOT": -4.864e-05, "MEAN_MOTION_DDOT": 0}, "tle": {"line1": "1 66678U 25276N   25357.16742872 -.00004864  00000+0 -24439-3 0  9992", "line2": "2 66678  97.4429  68.7316 0004439 250.9249 109.1504 15.16820662  3709"}}, "geometry": {"type": "Point", "coordinates": [-108.6391794757988, 15.066599556494081]}}, {"type": "Feature", "properties": {"norad_id": 66679, "name": "TRANSPORTER-15P", "group": "last-30-days", "lat": 22.335393158824747, "lon": -107.60051909156827, "alt_km": 516.0341636159301, "timestamp": "2025-12-23T18:59:30.756923+00:00", "meta": {"OBJECT_NAME": "TRANSPORTER-15P", "OBJECT_ID": "2025-276P", "EPOCH": "2025-12-22T16:57:55.829088", "MEAN_MOTION": 15.16688876, "ECCENTRICITY": 0.00046567, "INCLINATION": 97.4366, "RA_OF_ASC_NODE": 68.2598, "ARG_OF_PERICENTER": 258.8192, "MEAN_ANOMALY": 101.2518, "EPHEMERIS_TYPE": 0, "CLASSIFICATION_TYPE": "U", "NORAD_CAT_ID": 66679, "ELEMENT_SET_NO": 999, "REV_AT_EPOCH": 363, "BSTAR": 0.00025077063, "MEAN_MOTION_DOT": 4.846e-05, "MEAN_MOTION_DDOT": 0}, "tle": {"line1": "1 66679U 25276P   25356.70689617  .00004846  00000+0  25077-3 0  9996", "line2": "2 66679  97.4366  68.2598 0004656 258.8192 101.2518 15.16688876  3631"}}, "geometry": {"type": "Point", "coordinates": [-107.60051909156827, 22.335393158824747]}}, {"type": "Feature", "properties": {"norad_id": 66680, "name": "TRANSPORTER-15Q", "group": "last-30-days", "lat": 13.982526740922127, "lon": -108.79409843064062, "alt_km": 515.992119574049, "timestamp": "2025-12-23T18:59:30.756932+00:00", "meta": {"OBJECT_NAME": "TRANSPORTER-15Q", "OBJECT_ID": "2025-276Q", "EPOCH": "2025-12-23T04:00:49.104000", "MEAN_MOTION": 15.16832179, "ECCENTRICITY": 0.00049338, "INCLINATION": 97.4411, "RA_OF_ASC_NODE": 68.7284, "ARG_OF_PERICENTER": 249.8014, "MEAN_ANOMALY": 110.2689, "EPHEMERIS_TYPE": 0, "CLASSIFICATION_TYPE": "U", "NORAD_CAT_ID": 66680, "ELEMENT_SET_NO": 999, "REV_AT_EPOCH": 370, "BSTAR": 0.0005071714, "MEAN_MOTION_DOT": 9.916e-05, "MEAN_MOTION_DDOT": 0}, "tle": {"line1": "1 66680U 25276Q   25357.16723500  .00009916  00000+0  50717-3 0  9991", "line2": "2 66680  97.4411  68.7284 0004933 249.8014 110.2689 15.16832179  3706"}}, "geometry": {"type": "Point", "coordinates": [-108.79409843064062, 13.982526740922127]}}, {"type": "Feature", "properties": {"norad_id": 66681, "name": "TRANSPORTER-15R", "group": "last-30-days", "lat": -15.412692501778789, "lon": -112.73316878254437, "alt_km": 517.5089428558667, "timestamp": "2025-12-23T18:59:30.756941+00:00", "meta": {"OBJECT_NAME": "TRANSPORTER-15R", "OBJECT_ID": "2025-276R", "EPOCH": "2025-12-23T03:53:21.948576", "MEAN_MOTION": 15.17447983, "ECCENTRICITY": 0.00050029, "INCLINATION": 97.4334, "RA_OF_ASC_NODE": 68.712, "ARG_OF_PERICENTER": 273.8299, "MEAN_ANOMALY": 86.2363, "EPHEMERIS_TYPE": 0, "CLASSIFICATION_TYPE": "U", "NORAD_CAT_ID": 66681, "ELEMENT_SET_NO": 999, "REV_AT_EPOCH": 370, "BSTAR": 0.0009603796, "MEAN_MOTION_DOT": 0.00019195, "MEAN_MOTION_DDOT": 0}, "tle": {"line1": "1 66681U 25276R   25357.16205959  .00019195  00000+0  96038-3 0  9991", "line2": "2 66681  97.4334  68.7120 0005002 273.8299  86.2363 15.17447983  3707"}}, "geometry": {"type": "Point", "coordinates": [-112.73316878254437, -15.412692501778789]}}, {"type": "Feature", "properties": {"norad_id": 66682, "name": "TRANSPORTER-15S", "group": "last-30-days", "lat": -1.9342351020784458, "lon": -110.89377904669749, "alt_km": 516.6242799519086, "timestamp": "2025-12-23T18:59:30.756951+00:00", "meta": {"OBJECT_NAME": "TRANSPORTER-15S", "OBJECT_ID": "2025-276S", "EPOCH": "2025-12-23T03:56:44.528928", "MEAN_MOTION": 15.17100244, "ECCENTRICITY": 0.00042989, "INCLINATION": 97.4447, "RA_OF_ASC_NODE": 68.7434, "ARG_OF_PERICENTER": 246.9739, "MEAN_ANOMALY": 113.1041, "EPHEMERIS_TYPE": 0, "CLASSIFICATION_TYPE": "U", "NORAD_CAT_ID": 66682, "ELEMENT_SET_NO": 999, "REV_AT_EPOCH": 370, "BSTAR": -0.00037266233, "MEAN_MOTION_DOT": -7.439e-05, "MEAN_MOTION_DDOT": 0}, "tle": {"line1": "1 66682U 25276S   25357.16440427 -.00007439  00000+0 -37266-3 0  9991", "line2": "2 66682  97.4447  68.7434 0004298 246.9739 113.1041 15.17100244  3706"}}, "geometry": {"type": "Point", "coordinates": [-110.89377904669749, -1.9342351020784458]}}, {"type": "Feature", "properties": {"norad_id": 66683, "name": "TRANSPORTER-15T", "group": "last-30-days", "lat": 2.7570507043852044, "lon": -110.28154552938594, "alt_km": 516.0102905696413, "timestamp": "2025-12-23T18:59:30.756961+00:00", "meta": {"OBJECT_NAME": "TRANSPORTER-15T", "OBJECT_ID": "2025-276T", "EPOCH": "2025-12-23T03:57:57.029760", "MEAN_MOTION": 15.17024898, "ECCENTRICITY": 0.00047276, "INCLINATION": 97.4447, "RA_OF_ASC_NODE": 68.7427, "ARG_OF_PERICENTER": 241.8266, "MEAN_ANOMALY": 118.249, "EPHEMERIS_TYPE": 0, "CLASSIFICATION_TYPE": "U", "NORAD_CAT_ID": 66683, "ELEMENT_SET_NO": 999, "REV_AT_EPOCH": 370, "BSTAR": 0.00056540544, "MEAN_MOTION_DOT": 0.00011125, "MEAN_MOTION_DDOT": 0}, "tle": {"line1": "1 66683U 25276T   25357.16524340  .00011125  00000+0  56541-3 0  9991", "line2": "2 66683  97.4447  68.7427 0004727 241.8266 118.2490 15.17024898  3709"}}, "geometry": {"type": "Point", "coordinates": [-110.28154552938594, 2.7570507043852044]}}, {"type": "Feature", "properties": {"norad_id": 66684, "name": "TRANSPORTER-15U", "group": "last-30-days", "lat": -15.257748989754601, "lon": -112.67212106239798, "alt_km": 516.3570590738127, "timestamp": "2025-12-23T18:59:30.756971+00:00", "meta": {"OBJECT_NAME": "TRANSPORTER-15U", "OBJECT_ID": "2025-276U", "EPOCH": "2025-12-23T03:53:20.320800", "MEAN_MOTION": 15.17321986, "ECCENTRICITY": 0.00045823, "INCLINATION": 97.4473, "RA_OF_ASC_NODE": 68.7541, "ARG_OF_PERICENTER": 239.1089, "MEAN_ANOMALY": 120.9694, "EPHEMERIS_TYPE": 0, "CLASSIFICATION_TYPE": "U", "NORAD_CAT_ID": 66684, "ELEMENT_SET_NO": 999, "REV_AT_EPOCH": 370, "BSTAR": 0.00070349186, "MEAN_MOTION_DOT": 0.00013981, "MEAN_MOTION_DDOT": 0}, "tle": {"line1": "1 66684U 25276U   25357.16204075  .00013981  00000+0  70349-3 0  9996", "line2": "2 66684  97.4473  68.7541 0004582 239.1089 120.9694 15.17321986  3702"}}, "geometry": {"type": "Point", "coordinates": [-112.67212106239798, -15.257748989754601]}}, {"type": "Feature", "properties": {"norad_id": 66685, "name": "TRANSPORTER-15V", "group": "last-30-days", "lat": -22.780671106182936, "lon": -113.78835605499016, "alt_km": 517.4052602353804, "timestamp": "2025-12-23T18:59:30.756980+00:00", "meta": {"OBJECT_NAME": "TRANSPORTER-15V", "OBJECT_ID": "2025-276V", "EPOCH": "2025-12-23T03:51:25.340544", "MEAN_MOTION": 15.17470887, "ECCENTRICITY": 0.00041077, "INCLINATION": 97.4418, "RA_OF_ASC_NODE": 68.7388, "ARG_OF_PERICENTER": 262.4979, "MEAN_ANOMALY": 97.5788, "EPHEMERIS_TYPE": 0, "CLASSIFICATION_TYPE": "U", "NORAD_CAT_ID": 66685, "ELEMENT_SET_NO": 999, "REV_AT_EPOCH": 370, "BSTAR": 0.00080523183, "MEAN_MOTION_DOT": 0.00016085, "MEAN_MOTION_DDOT": 0}, "tle": {"line1": "1 66685U 25276V   25357.16070996  .00016085  00000+0  80523-3 0  9993", "line2": "2 66685  97.4418  68.7388 0004107 262.4979  97.5788 15.17470887  3709"}}, "geometry": {"type": "Point", "coordinates": [-113.78835605499016, -22.780671106182936]}}, {"type": "Feature", "properties": {"norad_id": 66686, "name": "TRANSPORTER-15W", "group": "last-30-days", "lat": -6.678942639610946, "lon": -111.5205407271514, "alt_km": 512.8082124099383, "timestamp": "2025-12-23T18:59:30.756990+00:00", "meta": {"OBJECT_NAME": "TRANSPORTER-15W", "OBJECT_ID": "2025-276W", "EPOCH": "2025-12-23T03:56:36.504096", "MEAN_MOTION": 15.1831658, "ECCENTRICITY": 0.00058538, "INCLINATION": 97.445, "RA_OF_ASC_NODE": 68.7391, "ARG_OF_PERICENTER": 311.4119, "MEAN_ANOMALY": 48.6611, "EPHEMERIS_TYPE": 0, "CLASSIFICATION_TYPE": "U", "NORAD_CAT_ID": 66686, "ELEMENT_SET_NO": 999, "REV_AT_EPOCH": 370, "BSTAR": 0.05265621, "MEAN_MOTION_DOT": 0.01174743, "MEAN_MOTION_DDOT": 0}, "tle": {"line1": "1 66686U 25276W   25357.16431139  .01174743  00000+0  52656-1 0  9995", "line2": "2 66686  97.4450  68.7391 0005853 311.4119  48.6611 15.18316580  3702"}}, "geometry": {"type": "Point", "coordinates": [-111.5205407271514, -6.678942639610946]}}]}